     2.100          NAVIGATION                              RINEX VERSION / TYPE
fic2rin                                 09/17/2014 00:16:19 PGM / RUN BY / DATE
                                                            END OF HEADER
 2 14  9 16 12  0  0.0  .518760178238D-03  .216004991671D-11  .000000000000D+00
     .120000000000D+02 -.809375000000D+01  .518378735412D-08 -.577132938281D+00
    -.363215804100D-06  .137511021458D-01  .793300569057D-05  .515367560959D+04
     .216000000000D+06  .949949026108D-07  .255168712970D+01  .225380063057D-06
     .940018173770D+00  .217968750000D+03 -.238813269387D+01 -.850499712441D-08
     .846463830045D-10  .100000000000D+01  .181000000000D+04  .000000000000D+00
     .240000000000D+01  .000000000000D+00 -.200234353542D-07  .120000000000D+02
     .208806000000D+06  .400000000000D+01
 4 14  9 16 12  0  0.0 -.751577317715D-06 -.227373675443D-12  .000000000000D+00
     .190000000000D+02 -.157812500000D+02  .498377902297D-08 -.228042617684D+01
    -.778585672379D-06  .110713674221D-01  .796280801296D-05  .515199044418D+04
     .216000000000D+06  .135973095894D-06  .256741463428D+01 -.558793544769D-07
     .939039832675D+00  .213250000000D+03  .107534661321D+01 -.806747890002D-08
     .243224416988D-09  .100000000000D+01  .181000000000D+04  .000000000000D+00
     .240000000000D+01  .000000000000D+00 -.651925802231D-08  .190000000000D+02
     .208806000000D+06  .400000000000D+01
 5 14  9 16 12  0  0.0 -.339095946401D-03  .375166564481D-11  .000000000000D+00
     .550000000000D+02  .287500000000D+01  .495163482689D-08  .179628551782D+01
     .223517417908D-06  .380244408734D-02  .734254717827D-05  .515367849159D+04
     .216000000000D+06 -.279396772385D-07 -.266313220265D+01  .186264514923D-08
     .947242919053D+00  .233750000000D+03  .334075302183D+00 -.823962892790D-08
    -.148220459691D-09  .100000000000D+01  .181000000000D+04  .000000000000D+00
     .240000000000D+01  .000000000000D+00 -.102445483208D-07  .550000000000D+02
     .208806000000D+06  .400000000000D+01
 6 14  9 16 12  0  0.0 -.466546043754D-05  .795807864051D-12  .000000000000D+00
     .460000000000D+02 -.147500000000D+02  .459161983082D-08  .175057451681D+01
    -.767409801483D-06  .520432367921D-03  .836886465549D-05  .515360067558D+04
     .216000000000D+06  .502914190292D-07  .257516553122D+01 -.931322574615D-08
     .961393541306D+00  .219250000000D+03  .212336047757D+01 -.801854829044D-08
     .132862677121D-09  .100000000000D+01  .181000000000D+04  .000000000000D+00
     .240000000000D+01  .000000000000D+00  .465661287308D-08  .460000000000D+02
     .208806000000D+06  .400000000000D+01
 7 14  9 16 12  0  0.0  .392215792090D-03  .420641299570D-11  .000000000000D+00
     .790000000000D+02  .554375000000D+02  .430553648573D-08 -.182968497477D+01
     .260211527348D-05  .794081785716D-02  .620074570179D-05  .515361449051D+04
     .216000000000D+06  .633299350739D-07 -.539082070383D+00 -.109896063805D-06
     .972668075392D+00  .265718750000D+03 -.278595968233D+01 -.803997775449D-08
     .253224833545D-09  .100000000000D+01  .181000000000D+04  .000000000000D+00
     .240000000000D+01  .000000000000D+00 -.107102096081D-07  .790000000000D+02
     .208806000000D+06  .400000000000D+01
 8 14  9 16 12  0  0.0  .155963934958D-04  .227373675443D-12  .000000000000D+00
     .130000000000D+02  .493750000000D+02  .382658796418D-08 -.177288379369D+01
     .230036675930D-05  .146137077827D-01  .576861202717D-05  .515217961884D+04
     .216000000000D+06  .100582838058D-06 -.437207833221D+00 -.178813934326D-06
     .996141590759D+00  .285406250000D+03 -.271431375217D+01 -.776318051049D-08
     .338228374284D-09  .100000000000D+01  .181000000000D+04  .000000000000D+00
     .240000000000D+01  .000000000000D+00 -.419095158577D-08  .130000000000D+02
     .208806000000D+06  .400000000000D+01
 9 14  9 16 12  0  0.0  .192709267139D-04 -.227373675443D-11  .000000000000D+00
     .180000000000D+02  .438750000000D+02  .442661295763D-08 -.777276773680D+00
     .228732824326D-05  .412254827097D-03  .908970832825D-05  .515374965096D+04
     .216000000000D+06  .186264514923D-08 -.161371167087D+01 -.149011611938D-07
     .959304489900D+00  .200156250000D+03 -.272127303048D+01 -.801426239763D-08
    -.130005415247D-09  .100000000000D+01  .181000000000D+04  .000000000000D+00
     .240000000000D+01  .630000000000D+02  .372529029846D-08  .180000000000D+02
     .208806000000D+06  .400000000000D+01
10 14  9 16 12  0  0.0 -.142168253660D-03 -.147792889038D-11  .000000000000D+00
     .200000000000D+02  .275000000000D+01  .504235289138D-08  .200745765478D+01
    -.447034835815D-07  .139220552519D-01  .748969614506D-05  .515361577225D+04
     .216000000000D+06 -.208616256714D-06 -.264653301248D+01 -.242143869400D-06
     .942028025717D+00  .227593750000D+03  .882152977258D+00 -.827213028172D-08
    -.105004373854D-09  .100000000000D+01  .181000000000D+04  .000000000000D+00
     .240000000000D+01  .000000000000D+00 -.279396772385D-08  .200000000000D+02
     .208806000000D+06  .400000000000D+01
11 14  9 16 12  0  0.0 -.521645415574D-03 -.284217094304D-11  .000000000000D+00
     .920000000000D+02 -.125000000000D+02  .607739600508D-08 -.170628218354D+01
    -.519677996635D-06  .155230793171D-01  .791624188423D-05  .515370868111D+04
     .216000000000D+06  .352039933205D-06  .225156402906D+01  .245869159698D-06
     .891306982331D+00  .186250000000D+03  .133203284826D+01 -.861785896842D-08
     .162506769059D-09  .100000000000D+01  .181000000000D+04  .000000000000D+00
     .340000000000D+01  .000000000000D+00 -.121071934700D-07  .920000000000D+02
     .208806000000D+06  .400000000000D+01
12 14  9 16 12  0  0.0  .232355669141D-03  .261479726760D-11  .000000000000D+00
     .720000000000D+02 -.264062500000D+02  .407588406265D-08 -.226222071286D+01
    -.135973095894D-05  .506548129488D-02  .527128577232D-05  .515355078697D+04
     .216000000000D+06  .106170773506D-06  .524997709542D+00 -.154599547386D-06
     .988468155335D+00  .290875000000D+03  .501043356410D+00 -.796318884164D-08
     .503592405216D-10  .100000000000D+01  .181000000000D+04  .000000000000D+00
     .240000000000D+01  .000000000000D+00 -.121071934700D-07  .720000000000D+02
     .208806000000D+06  .400000000000D+01
13 14  9 16 12  0  0.0 -.420678406954D-04 -.386535248253D-11  .000000000000D+00
     .490000000000D+02  .492500000000D+02  .407231248530D-08  .474769606643D+00
     .250525772572D-05  .525811070111D-02  .920705497265D-05  .515377380943D+04
     .216000000000D+06  .372529029846D-08 -.150273036051D+01 -.875443220139D-07
     .976158363863D+00  .207812500000D+03  .232742009994D+01 -.791104381244D-08
    -.925038531568D-10  .100000000000D+01  .181000000000D+04  .000000000000D+00
     .240000000000D+01  .000000000000D+00 -.111758708954D-07  .490000000000D+02
     .208806000000D+06  .400000000000D+01
14 14  9 16 12  0  0.0  .134396366775D-03 -.363797880709D-11  .000000000000D+00
     .390000000000D+02  .441250000000D+02  .427696386700D-08  .832158827144D+00
     .219978392124D-05  .790299149230D-02  .848062336445D-05  .515371911240D+04
     .216000000000D+06 -.111758708954D-06 -.153541295543D+01 -.745058059692D-08
     .968693123625D+00  .219031250000D+03 -.198200548859D+01 -.801176229349D-08
    -.161435295857D-09  .100000000000D+01  .181000000000D+04  .000000000000D+00
     .240000000000D+01  .000000000000D+00 -.884756445885D-08  .390000000000D+02
     .208806000000D+06  .400000000000D+01
15 14  9 16 12  0  0.0 -.203169416636D-03 -.227373675443D-11  .000000000000D+00
     .490000000000D+02  .258750000000D+02  .504878173060D-08  .208562330613D+00
     .143609941006D-05  .652782432735D-02  .811740756035D-05  .515376527786D+04
     .216000000000D+06  .106170773506D-06 -.165119165547D+01  .707805156708D-07
     .935312871855D+00  .208406250000D+03  .279916525658D+00 -.839356391134D-08
    -.128219626576D-09  .100000000000D+01  .181000000000D+04  .000000000000D+00
     .240000000000D+01  .000000000000D+00 -.102445483208D-07  .490000000000D+02
     .208806000000D+06  .400000000000D+01
16 14  9 16 12  0  0.0 -.194502994418D-03  .250111042988D-11  .000000000000D+00
     .600000000000D+02 -.399375000000D+02  .413945813933D-08  .188341428244D+01
    -.189989805222D-05  .765799917281D-02  .549852848053D-05  .515366138268D+04
     .216000000000D+06 -.949949026108D-07  .543589519943D+00  .219792127609D-06
     .989041276899D+00  .289562500000D+03  .237629257664D+00 -.803140596887D-08
    -.900037490174D-10  .100000000000D+01  .181000000000D+04  .000000000000D+00
     .240000000000D+01  .000000000000D+00 -.102445483208D-07  .600000000000D+02
     .208806000000D+06  .400000000000D+01
17 14  9 16 12  0  0.0 -.124269165099D-03 -.272848410532D-11  .000000000000D+00
     .840000000000D+02 -.592812500000D+02  .438089676765D-08  .980419621864D+00
    -.300817191601D-05  .945721578319D-02  .850297510624D-05  .515365038872D+04
     .216000000000D+06 -.119209289551D-06  .157401345920D+01  .949949026108D-07
     .969504103966D+00  .224312500000D+03 -.209606620639D+01 -.812962434577D-08
    -.557166065346D-10  .100000000000D+01  .181000000000D+04  .000000000000D+00
     .240000000000D+01  .000000000000D+00 -.102445483208D-07  .840000000000D+02
     .208806000000D+06  .400000000000D+01
18 14  9 16 12  0  0.0  .345219857991D-03  .261479726760D-11  .000000000000D+00
     .310000000000D+02 -.240625000000D+01  .523557522558D-08  .248796759690D+01
    -.244006514549D-06  .154965927359D-01  .701844692230D-05  .515372636604D+04
     .216000000000D+06  .875443220139D-07 -.267083436832D+01 -.204890966415D-06
     .925806474687D+00  .221687500000D+03 -.201112059977D+01 -.815998275318D-08
    -.118219210019D-09  .100000000000D+01  .181000000000D+04  .000000000000D+00
     .240000000000D+01  .000000000000D+00 -.107102096081D-07  .310000000000D+02
     .208806000000D+06  .400000000000D+01
